OBJECT_NAME,OBJECT_ID,EPOCH,MEAN_MOTION,ECCENTRICITY,INCLINATION,RA_OF_ASC_NODE,ARG_OF_PERICENTER,MEAN_ANOMALY,EPHEMERIS_TYPE,CLASSIFICATION_TYPE,NORAD_CAT_ID,ELEMENT_SET_NO,REV_AT_EPOCH,BSTAR,MEAN_MOTION_DOT,MEAN_MOTION_DDOT
STARLINK-36486,2026-003B,2026-07-13T03:30:40.458240,15.27572808,.00010914,42.9967,238.3143,267.0244,93.0483,0,U,67335,999,2801,.33846914E-3,.9061E-4,0
STARLINK-36480,2026-003C,2026-07-13T12:03:59.573376,15.27593598,.000235,43.0035,236.6988,283.9672,76.0918,0,U,67336,999,2806,.39100798E-3,.10517E-3,0
STARLINK-36410,2026-003D,2026-07-13T03:04:57.675648,15.27592746,.00016604,42.9987,239.0516,267.4313,92.6348,0,U,67337,999,2800,.31925599E-3,.8537E-4,0
STARLINK-36413,2026-003E,2026-07-13T10:44:38.083200,15.27571445,.00063726,43.0024,237.1510,235.7450,124.2798,0,U,67338,999,2805,.36970439E-3,.9926E-4,0
STARLINK-36451,2026-003F,2026-07-13T04:07:39.397728,15.27590598,.00009274,42.9970,238.5094,190.3007,169.7826,0,U,67339,999,2801,.35151199E-3,.9426E-4,0
STARLINK-36339,2026-003G,2026-07-13T10:13:10.873920,15.27589670,.00015938,43.0001,236.9758,278.9036,81.1635,0,U,67340,999,2805,.41498609E-3,.11178E-3,0
STARLINK-36453,2026-003H,2026-07-13T10:07:37.816608,15.27600095,.00017075,43.0013,236.9480,280.7836,79.2824,0,U,67341,999,2805,.49766184E-3,.13466E-3,0
STARLINK-36432,2026-003J,2026-07-13T03:19:33.084768,15.27590581,.0001644,42.9972,238.2539,278.0740,81.9925,0,U,67342,999,2801,.48016213E-3,.12979E-3,0
STARLINK-36458,2026-003K,2026-07-13T11:32:31.940736,15.27592857,.00018331,43.0009,236.5283,281.7365,78.3281,0,U,67343,999,2806,.35932555E-3,.9643E-4,0
STARLINK-36422,2026-003L,2026-07-13T11:15:53.818560,15.27548239,.00017912,42.9974,236.4367,268.4619,91.6027,0,U,67344,999,2806,-.42335376E-3,-.11882E-3,0
STARLINK-35676,2026-003M,2026-07-13T11:26:58.833312,15.27590457,.00016811,42.9974,236.4940,267.5732,92.4927,0,U,67345,999,2806,.47401205E-3,.12809E-3,0
STARLINK-36472,2026-003N,2026-07-13T10:40:56.686656,15.27586092,.00017684,43.0016,237.1253,272.5100,87.5550,0,U,67346,999,2804,.3166037E-3,.8462E-4,0
STARLINK-36420,2026-003P,2026-07-13T10:26:07.968480,15.27601744,.00024451,43.0038,237.0484,296.2887,63.7714,0,U,67347,999,2805,.37192149E-3,.9993E-4,0
STARLINK-36467,2026-003Q,2026-07-13T12:05:50.461728,15.27589555,.000151,43.0019,236.7053,276.8261,83.2419,0,U,67348,999,2806,.29679462E-3,.7916E-4,0
STARLINK-36457,2026-003R,2026-07-13T10:09:28.993536,15.27590065,.00013122,42.9999,236.9534,267.1964,92.8738,0,U,67349,999,2805,.36386215E-3,.9767E-4,0
STARLINK-36475,2026-003S,2026-07-13T03:32:31.223040,15.27583483,.00010326,42.9971,238.3215,271.3302,88.7431,0,U,67350,999,2801,.5173509E-3,.14003E-3,0
STARLINK-36478,2026-003T,2026-07-13T14:20:29.752512,15.27589917,.00013544,42.9963,235.6803,303.8450,56.2273,0,U,67351,999,2808,.32852107E-3,.8792E-4,0
STARLINK-36479,2026-003U,2026-07-13T04:46:18.149952,15.27588919,.0001338,42.9927,237.8392,232.6588,127.4141,0,U,67352,999,2802,.40551E-3,.10916E-3,0
STARLINK-36474,2026-003V,2026-07-13T03:06:48.883680,15.27590409,.00011833,42.9993,239.0597,290.9749,69.0976,0,U,67353,999,2800,.45966239E-3,.12412E-3,0
STARLINK-36448,2026-003W,2026-07-13T10:20:34.929312,15.27590463,.00014464,43.0011,237.0148,295.4123,64.6578,0,U,67354,999,2805,.29794477E-3,.7948E-4,0
STARLINK-36477,2026-003X,2026-07-13T14:00:21.112416,15.27590042,.00017324,43.0007,236.4443,274.4669,85.5985,0,U,67355,999,2807,.24645475E-3,.6528E-4,0
STARLINK-36429,2026-003Y,2026-07-13T10:46:29.169408,15.27596055,.00019088,43.0018,237.1543,280.5554,79.5082,0,U,67356,999,2805,.31225473E-3,.8344E-4,0
STARLINK-36456,2026-003Z,2026-07-13T03:58:24.372768,15.27590302,.00011161,42.9999,238.4549,223.1867,136.8897,0,U,67357,999,2801,.2899873E-3,.7729E-4,0
STARLINK-36466,2026-003AA,2026-07-13T11:17:43.756512,15.27584953,.00015488,42.9969,236.4420,269.3189,90.7485,0,U,67358,999,2806,.1893632E-3,.4953E-4,0
STARLINK-36499,2026-003AB,2026-07-13T10:59:26.413440,15.27592253,.00017671,42.9988,237.2194,280.8113,79.2539,0,U,67359,999,2805,.45095686E-3,.12172E-3,0
STARLINK-36469,2026-003AC,2026-07-13T10:53:53.102976,15.27593299,.00019868,42.9992,237.1888,273.0461,87.0163,0,U,67360,999,2805,.39279905E-3,.10567E-3,0
STARLINK-35306,2026-003AD,2026-07-13T11:39:55.962432,15.27597598,.0001937,43.0012,236.5631,282.3767,77.6868,0,U,67361,999,2806,.39850045E-3,.10726E-3,0
STARLINK-36428,2026-003AE,2026-07-13T10:02:04.942464,15.27591168,.00011247,42.9967,236.9095,304.4598,55.6147,0,U,67362,999,2805,.43098117E-3,.1162E-3,0
LEMUR-2 FIKRETDENGIZ,2026-004A,2026-07-12T22:47:09.379968,14.88507915,.00103065,97.8023,192.1152,62.1023,298.1237,0,U,67363,999,2711,.27683743E-3,.252E-4,0
TWILIGHT-1 OBJECT B,2026-004B,2026-07-13T12:33:51.392736,14.87790232,.00098546,97.8074,192.6825,50.7792,309.4298,0,U,67364,999,2720,.10932669E-3,.944E-5,0
LEMUR-2-MARIO-SOUSA,2026-004C,2026-07-13T12:49:41.776320,14.88718766,.0009922,97.7996,192.6866,61.6788,298.5429,0,U,67365,999,2721,.28474413E-3,.2607E-4,0
LEMUR-2 CALLUM-K-J,2026-004D,2026-07-13T11:40:19.737120,14.88464508,.00102001,97.8020,192.6480,57.3870,302.8330,0,U,67366,999,2720,.28741087E-3,.2616E-4,0
LEMUR-2-SONNENBLUME,2026-004E,2026-07-13T12:53:21.968448,14.88448243,.00094856,97.8000,192.6626,62.7623,297.4560,0,U,67367,999,2721,.16491883E-3,.1477E-4,0
LEMUR-2-WOBLER,2026-004F,2026-07-13T14:15:07.248096,14.88690528,.00095742,97.8046,192.8678,54.6705,305.5406,0,U,67368,999,2722,.22363834E-3,.2034E-4,0
BLACKCAT,2026-004G,2026-07-13T12:28:23.848608,14.87739373,.00087363,97.7990,192.5189,64.4585,295.7534,0,U,67369,999,2720,.96718733E-4,.828E-5,0
LEMUR-2-GRAM-E-SUE,2026-004H,2026-07-13T12:26:49.673472,14.88584867,.00086997,97.7986,192.6609,65.4084,294.8038,0,U,67370,999,2721,.14215162E-3,.1269E-4,0
UMBRA-12,2026-004J,2026-07-13T12:13:37.425216,14.89524904,.00074998,97.8021,192.9182,57.3356,302.8584,0,U,67371,999,2722,.21600818E-3,.2004E-4,0
ICEYE-X63,2026-004K,2026-07-13T12:05:07.701504,14.88347063,.00054878,97.8013,192.7327,56.3423,303.8316,0,U,67372,999,2721,.5645334E-4,.468E-5,0
ICEYE-X64,2026-004L,2026-07-13T11:37:50.662560,14.87984682,.00073295,97.8026,192.6339,58.6773,301.5161,0,U,67373,999,2720,.79345071E-4,.674E-5,0
AETHER-3,2026-004M,2026-07-13T14:05:21.101856,14.88050779,.00052229,97.8011,192.7742,57.9759,302.1964,0,U,67374,999,2722,.4599513E-4,.368E-5,0
AETHER-4,2026-004N,2026-07-13T12:05:45.374496,14.86283154,.00028143,97.8047,192.6561,110.9617,249.1900,0,U,67375,999,2720,.47679416E-4,.366E-5,0
AETHER-5,2026-004P,2026-07-13T12:54:25.066368,14.86306691,.00045675,97.8047,192.6067,63.3846,296.7837,0,U,67376,999,2720,.42313596E-4,.319E-5,0
AETHER-6,2026-004Q,2026-07-13T12:25:16.740768,14.86315209,.00042096,97.8047,192.6370,69.0582,291.1084,0,U,67377,999,2719,.44469205E-4,.338E-5,0
AETHER-7,2026-004R,2026-07-12T22:40:58.321344,14.86321311,.00043285,97.8020,191.9357,61.5928,298.5724,0,U,67378,999,2710,.4286761E-4,.324E-5,0
AETHER-8,2026-004S,2026-07-13T14:21:25.633440,14.86315976,.0003569,97.8023,192.6336,90.1266,270.0358,0,U,67379,999,2720,.43417299E-4,.329E-5,0
AETHER-9,2026-004T,2026-07-13T14:11:35.458368,14.86319608,.00031071,97.8015,192.6242,107.0951,253.0605,0,U,67380,999,2720,.4333108E-4,.328E-5,0
AETHER-10,2026-004U,2026-07-13T11:56:09.576384,14.86304761,.00030797,97.8051,192.6747,85.7949,274.3619,0,U,67381,999,2719,.43942985E-4,.333E-5,0
AETHER-11,2026-004V,2026-07-13T11:45:55.839168,14.86333864,.00025823,97.8043,192.6640,110.6607,249.4885,0,U,67382,999,2719,.42671819E-4,.323E-5,0
AETHER-12,2026-004W,2026-07-13T13:03:51.819264,14.86320076,.00046937,97.8020,192.5407,54.7584,305.4070,0,U,67383,999,2719,.43189552E-4,.327E-5,0
CAPELLA-19 (ACADIA-9),2026-004X,2026-07-13T12:22:55.919136,14.86652841,.00015757,97.8003,192.4137,93.8860,266.2536,0,U,67384,999,2718,.28824077E-3,.2506E-4,0
CAPELLA-18 (ACADIA-8),2026-004Y,2026-07-12T22:05:06.295200,14.86638961,.000139,97.8017,191.9823,99.5822,260.5551,0,U,67385,999,2710,.79554E-4,.653E-5,0
TWILIGHT-1 OBJECT Z,2026-004Z,2026-07-13T12:21:52.253568,14.88941114,.00041454,97.8005,192.8646,58.8861,301.2763,0,U,67386,999,2721,.11430257E-3,.1019E-4,0
LEMUR-2-KATIE,2026-004AA,2026-07-13T13:04:13.897056,14.90242123,.00036348,97.8042,193.2324,38.0849,322.0625,0,U,67387,999,2723,.3118984E-3,.2971E-4,0
LEMUR-2-HCS-BAZUS,2026-004AB,2026-07-13T13:01:52.912992,14.90256181,.00031542,97.8038,193.2094,36.4661,323.6771,0,U,67388,999,2723,.17206729E-3,.1614E-4,0
HYDRA-2,2026-004AC,2026-07-12T13:32:49.732800,15.18869521,.0001693,97.4587,192.2928,218.1934,141.9180,0,U,67389,999,2760,.19222E-3,.3939E-4,0
CONNECTA IOT-16,2026-004AD,2026-07-13T11:35:27.367296,15.18018214,.00022246,97.4597,193.0587,235.5449,124.5575,0,U,67390,999,2773,.80236256E-4,.1565E-4,0
FLAMINGO-1,2026-004AE,2026-07-13T12:41:48.385536,15.17730475,.0004435,97.4559,193.0430,223.2816,136.8069,0,U,67391,999,2774,.69257547E-4,.133E-4,0
HAWK-13A,2026-004AF,2026-07-13T12:57:48.830400,15.19350276,.00040003,97.4444,193.0369,226.5773,133.5129,0,U,67392,999,2776,.12070706E-3,.2483E-4,0
HAWK-13C,2026-004AG,2026-07-13T12:57:35.798688,15.19350293,.00038209,97.4588,193.4577,230.6574,129.4322,0,U,67393,999,2776,.12041462E-3,.2477E-4,0
TWILIGHT-1 OBJECT AH,2026-004AH,2026-07-13T12:03:09.412128,15.19634175,.00070363,97.4499,193.2497,237.2580,122.7977,0,U,67394,999,2776,.10978996E-3,.2272E-4,0
PANDORA,2026-004AJ,2026-07-13T14:18:25.772832,14.88118589,.00064885,97.8049,192.8444,53.2913,306.8898,0,U,67395,999,2720,.58518957E-4,.484E-5,0
HAWK-13B,2026-004AK,2026-07-13T12:57:28.119456,15.19349481,.00051136,97.4527,193.2822,231.6278,128.4498,0,U,67396,999,2776,.12021359E-3,.2473E-4,0
CARBSAR,2026-004AL,2026-07-13T13:54:00.024480,15.19892878,.00039787,97.4543,193.4289,229.4982,130.5907,0,U,67397,999,2777,.1642798E-3,.3459E-4,0
TOMORROW-S10,2026-004AM,2026-07-13T12:37:23.911680,15.19798485,.00043823,97.4583,193.4332,243.2208,116.8579,0,U,67398,999,2776,.10883024E-3,.2262E-4,0
